[{"OBJECT_NAME":"STARLINK-4558","OBJECT_ID":"2022-097AQ","EPOCH":"2026-03-09T12:06:26.903520","MEAN_MOTION":15.08841229,"ECCENTRICITY":0.00015543,"INCLINATION":53.2164,"RA_OF_ASC_NODE":105.1149,"ARG_OF_PERICENTER":47.4079,"MEAN_ANOMALY":312.7044,"EPHEMERIS_TYPE":0,"CLASSIFICATION_TYPE":"U","NORAD_CAT_ID":53426,"ELEMENT_SET_NO":999,"REV_AT_EPOCH":19875,"BSTAR":8.5140231e-5,"MEAN_MOTION_DOT":1.067e-5,"MEAN_MOTION_DDOT":0},{"OBJECT_NAME":"USA 76","OBJECT_ID":"1991-076D","EPOCH":"2026-03-09T13:26:15.944928","MEAN_MOTION":13.58542045,"ECCENTRICITY":0.0886705,"INCLINATION":63.2994,"RA_OF_ASC_NODE":60.1095,"ARG_OF_PERICENTER":72.6365,"MEAN_ANOMALY":296.9601,"EPHEMERIS_TYPE":0,"CLASSIFICATION_TYPE":"U","NORAD_CAT_ID":21808,"ELEMENT_SET_NO":999,"REV_AT_EPOCH":9249,"BSTAR":0.00059173,"MEAN_MOTION_DOT":7.457e-5,"MEAN_MOTION_DDOT":0}]
